"full_name","ad","tp_cal","e","q","i","om","w","per_y","class","data_arc","condition_code","n_obs_used","two_body","A1","A2","A3","DT","name","epoch","epoch_cal","a","moid","moid_ld","first_obs","last_obs"
"     C/2018 F4-A (PANSTARRS)",,2019-12-04.1,1.0013,3.440,78.10,26.51,263.22,,HYP,442,,146,,,,,,PANSTARRS,2459200.5,2020-12-17.0,-2581,3.16,1.23e+03,2020-09-12,2021-11-28
"     C/2018 F4-B (PANSTARRS)",,2019-12-04.0,1.0014,3.440,78.09,26.51,263.21,,HYP,420,,167,,,,,,PANSTARRS,2459253.5,2021-02-08.0,-2428,3.16,1.23e+03,2020-09-12,2021-11-06
"     P/2018 H2 (PANSTARRS)",6.79,2018-01-23.4,0.5400,2.027,7.39,68.46,120.23,9.25,JFc,207,5,169,,,,,,PANSTARRS,2458234.5,2018-04-26.0,4.407,1.04,405,2017-11-17,2018-06-12
"     C/2018 K1 (Weiland)",57.98,2018-04-06.8,0.9372,1.879,164.19,260.00,325.00,164,HTC,251,4,163,,,,,,Weiland,2458273.5,2018-06-04.0,29.93,0.886,345,2017-11-06,2018-07-15
"     C/2018 KJ3 (Lemmon)",1729.53,2019-09-09.9,0.9958,3.627,136.67,91.59,217.71,2.55e+04,COM,614,,465,,,,,,Lemmon,2458340.5,2018-08-10.0,866.6,2.71,1.06e+03,2018-05-17,2020-01-21
"     C/2018 L2 (ATLAS)",486.05,2018-12-02.5,0.9930,1.712,67.42,243.02,56.23,3.81e+03,COM,996,,731,,-2.7e-08,-1.8e-09,,,ATLAS,2458481.5,2018-12-29.0,243.9,0.985,383,2017-04-29,2020-01-20
"     P/2018 L4 (PANSTARRS)",8.19,2018-07-31.8,0.6603,1.676,26.63,145.19,140.43,11,JFc,149,4,129,,,,,,PANSTARRS,2458298.5,2018-06-29.0,4.935,0.727,283,2018-05-19,2018-10-15
"     C/2018 M1 (Catalina)",41.22,2018-07-10.0,0.9387,1.303,37.26,339.46,14.13,98.1,HTC,206,4,171,,,,,,Catalina,2458346.5,2018-08-16.0,21.26,0.309,120,2018-06-25,2019-01-17
"     C/2018 N1 (NEOWISE)",842.62,2018-08-01.9,0.9969,1.307,159.44,292.44,354.56,8.67e+03,COM,295,,263,,,,,,NEOWISE,2458322.5,2018-07-23.0,422,0.292,114,2017-12-15,2018-10-06
"     C/2018 N2 (ASASSN)",,2019-11-10.9,1.0002,3.125,77.53,25.26,24.40,,HYP,1421,,4653,,,,,,ASASSN,2458905.5,2020-02-26.0,-1.702e+04,2.19,854,2018-07-07,2022-05-28
"     C/2018 O1 (ATLAS)",54.19,2018-08-31.5,0.9441,1.558,154.04,87.62,162.50,147,HTC,78,6,331,,,,,,ATLAS,2458333.5,2018-08-03.0,27.87,0.557,217,2018-07-15,2018-10-01
"     P/2018 P4 (PANSTARRS)",9.65,2018-11-07.3,0.4493,3.666,23.11,353.11,8.12,17.2,JFc,147,4,116,,,,,,PANSTARRS,2458374.5,2018-09-13.0,6.657,2.66,1.04e+03,2018-07-10,2018-12-04
"     C/2018 P5 (PANSTARRS)",20.91,2019-02-26.2,0.6409,4.576,7.26,216.24,131.63,45.5,JFc,597,4,93,,,,,,PANSTARRS,2458531.5,2019-02-17.0,12.74,3.58,1.39e+03,2018-06-16,2020-02-03
"     C/2018 R3 (Lemmon)",3938.91,2019-06-07.1,0.9993,1.291,69.72,324.63,112.88,8.74e+04,COM,573,,272,,,,,,Lemmon,2458538.5,2019-02-24.0,1970,0.679,264,2018-08-08,2020-03-03
"     C/2018 R4 (Fuls)",604.26,2018-03-03.6,0.9944,1.709,11.68,298.46,345.15,5.27e+03,COM,125,,114,,,,,,Fuls,2458363.5,2018-09-02.0,303,0.696,271,2018-06-06,2018-10-09
"     C/2018 R5 (Lemmon)",42.09,2019-01-09.9,0.8416,3.621,103.76,171.14,178.01,109,HTC,131,5,187,,,,,,Lemmon,2458380.5,2018-09-19.0,22.86,2.62,1.02e+03,2018-07-05,2018-11-13
"     C/2018 S2 (TESS)",22.94,2018-11-05.1,0.6149,5.471,64.22,85.13,290.68,53.5,HTC,585,4,803,,,,,,TESS,2458219.5,2018-04-11.0,14.21,4.92,1.91e+03,2017-08-02,2019-03-10
"     C/2018 S3 (TESS)",,2016-06-29.5,1.0013,8.000,78.42,24.98,263.85,,HYP,1750,,35,,,,,,TESS,2457820.5,2017-03-08.0,-6079,7.78,3.03e+03,2014-02-15,2018-12-01
"     C/2018 U1 (Lemmon)",,2021-11-02.8,1.0008,4.994,108.30,75.48,180.42,,HYP,1686,,2459,,,,,,Lemmon,2459103.5,2020-09-11.0,-6188,3.98,1.55e+03,2018-10-27,2023-06-09
"     C/2018 V1 (Machholz-Fujikawa-Iwamoto)",,2018-12-03.5,1.0004,0.387,143.99,128.72,88.77,,HYP,37,,750,,,,,,Machholz-Fujikawa-Iwamoto,2458438.5,2018-11-16.0,-990.7,0.115,44.8,2018-11-08,2018-12-15
"     C/2018 V2 (ATLAS)",48.49,2018-11-26.9,0.9029,2.475,159.11,356.79,318.66,129,HTC,297,3,173,,,,,,ATLAS,2458560.5,2019-03-18.0,25.48,1.52,593,2018-10-18,2019-08-11
"     P/2018 VN2 (Leonard)",6.00,2018-06-05.3,0.4777,2.123,18.24,226.55,138.78,8.19,JFc,164,4,117,,,,,,Leonard,2458418.5,2018-10-27.0,4.064,1.16,450,2018-07-02,2018-12-13
"     C/2018 V4 (Africano)",418.49,2019-03-01.6,0.9848,3.199,69.00,78.38,0.01,3.06e+03,COM,125,,159,,,,,,Africano,2458439.5,2018-11-17.0,210.8,2.21,862,2018-09-05,2019-01-08
"     P/2018 V5 (Trujillo-Sheppard)",13.21,2018-10-03.8,0.4746,4.708,10.58,171.33,260.81,26.8,JFc,851,4,21,,,,,,Trujillo-Sheppard,2458331.5,2018-08-01.0,8.961,3.74,1.46e+03,2017-09-28,2020-01-27
"     C/2018 W1 (Catalina)",42.28,2019-05-11.8,0.9377,1.360,83.28,233.59,251.25,102,HTC,552,2,287,,,,,,Catalina,2458509.5,2019-01-26.0,21.82,0.805,313,2018-11-16,2020-05-21
"     C/2018 W2 (Africano)",,2019-09-05.7,1.0008,1.455,116.62,181.85,157.97,,HYP,566,,1995,,,,,,Africano,2458691.5,2019-07-27.0,-1915,0.494,192,2018-11-27,2020-06-15
"     C/2018 X2 (Fitzsimmons)",307.77,2019-07-08.5,0.9863,2.126,23.07,340.83,162.05,1.93e+03,COM,392,,390,,,,,,Fitzsimmons,2458524.5,2019-02-10.0,154.9,1.15,447,2018-12-08,2020-01-04
"     C/2018 X3 (PANSTARRS)",22.14,2018-12-30.7,0.7827,2.699,43.37,78.92,359.83,43.8,HTC,92,5,50,,,,,,PANSTARRS,2458462.5,2018-12-10.0,12.42,1.71,667,2018-10-04,2019-01-04
"     C/2018 Y1 (Iwamoto)",287.25,2019-02-07.0,0.9911,1.287,160.40,147.48,358.06,1.73e+03,COM,348,,2771,,,,,,Iwamoto,2458545.5,2019-03-03.0,144.3,0.299,116,2018-12-19,2019-12-02
"     P/2018 Y2 (Africano)",11.06,2019-01-02.5,0.4793,3.893,11.68,297.26,162.50,20.4,JFc,101,4,81,,,,,,Africano,2458494.5,2019-01-11.0,7.478,2.91,1.13e+03,2018-12-10,2019-03-21
"     P/2019 A1 (PANSTARRS)",8.05,2018-10-11.0,0.5689,2.212,13.74,312.30,150.85,11.6,JFc,86,5,63,,,,,,PANSTARRS,2458501.5,2019-01-18.0,5.131,1.24,482,2018-12-04,2019-02-28
"     P/2019 A2 (ATLAS)",7.92,2018-11-21.4,0.3820,3.543,14.86,139.46,324.23,13.7,JFc,922,3,284,,,,,,ATLAS,2458523.5,2019-02-09.0,5.733,2.57,1e+03,2018-11-03,2021-05-13
"     P/2019 A3 (PANSTARRS)",3.98,2018-08-01.8,0.2652,2.313,15.37,31.32,325.48,5.58,ETc,1332,2,66,,,,,,PANSTARRS,2458852.5,2020-01-04.0,3.148,1.33,516,2018-08-08,2022-04-01
"     P/2019 A4 (PANSTARRS)",2.85,2018-12-05.2,0.0896,2.379,13.32,119.30,341.84,4.23,ETc,116,4,85,,,,,,PANSTARRS,2458501.5,2019-01-18.0,2.613,1.4,544,2018-12-09,2019-04-04
"     C/2019 A5 (PANSTARRS)",36.97,2019-06-09.4,0.7079,6.324,67.54,146.62,356.04,101,HTC,530,3,70,,,,,,PANSTARRS,2458701.5,2019-08-06.0,21.65,5.34,2.08e+03,2019-01-04,2020-06-17
"     P/2019 A6 (Lemmon-PANSTARRS)",8.81,2018-08-29.3,0.6392,1.939,33.23,280.27,156.31,12.5,JFc,111,5,55,,,,,,Lemmon-PANSTARRS,2458488.5,2019-01-05.0,5.372,0.983,383,2018-11-10,2019-03-01
"     C/2019 A9 (PANSTARRS)",76.22,2019-07-26.5,0.9633,1.426,84.34,278.37,237.80,242,COM,546,2,199,,,,,,PANSTARRS,2458567.5,2019-03-25.0,38.82,0.736,286,2018-12-18,2020-06-16
"     C/2019 B1 (Africano)",309.26,2019-03-19.9,0.9897,1.597,123.36,290.43,174.88,1.94e+03,COM,105,,161,,,,,,Africano,2458524.5,2019-02-10.0,155.4,0.616,240,2018-12-19,2019-04-03
"     P/2019 B2 (Groeller)",5.29,2019-06-08.0,0.3729,2.417,16.83,176.46,358.71,7.56,JFc,181,4,187,,,,,,Groeller,2458543.5,2019-03-01.0,3.853,1.42,553,2019-01-04,2019-07-04
"     C/2019 B3 (PANSTARRS)",,2021-01-20.1,1.0021,6.823,66.54,358.43,263.92,,HYP,1728,,293,,,,,,PANSTARRS,2459382.5,2021-06-17.0,-3243,6.46,2.51e+03,2019-01-24,2023-10-18
"     C/2019 C1 (ATLAS)",1659.34,2020-05-05.7,0.9921,6.581,36.02,212.40,319.19,2.4e+04,JFc,907,,739,,,,,,ATLAS,2458963.5,2020-04-24.0,833,5.67,2.21e+03,2019-01-14,2021-07-09
"     C/2019 D1 (Flewelling)",273.96,2019-05-11.8,0.9885,1.578,34.10,231.72,70.48,1.62e+03,COM,281,,797,,,,,,Flewelling,2458653.5,2019-06-19.0,137.8,0.829,323,2019-02-26,2019-12-04
"     C/2019 E3 (ATLAS)",,2023-11-14.1,1.0014,10.314,84.30,347.25,280.66,,HYP,4855,,1002,,,,,,ATLAS,2459743.5,2022-06-13.0,-7523,10.1,3.92e+03,2012-03-19,2025-07-04
"     C/2019 F1 (ATLAS-Africano)",,2021-06-22.7,1.0035,3.596,54.18,38.73,251.11,,HYP,1818,,1964,,1.3e-08,-4.3e-09,8.2e-09,,ATLAS-Africano,2459143.5,2020-10-21.0,-1031,2.99,1.16e+03,2019-02-08,2024-01-31
"     C/2019 F2 (ATLAS)",30.86,2019-09-08.8,0.8651,2.233,19.19,175.87,10.95,67.3,JFc,510,3,674,,,,,,ATLAS,2458610.5,2019-05-07.0,16.55,1.24,482,2019-02-26,2020-07-20
"     C/2019 G2 (PANSTARRS)",1396.83,2019-12-10.0,0.9967,2.291,159.21,208.14,82.65,1.85e+04,COM,564,,120,,,,,,PANSTARRS,2458770.5,2019-10-14.0,699.6,1.41,550,2019-02-27,2020-09-13
"     C/2019 G4 (PANSTARRS)",,2018-09-16.6,1.0001,5.865,138.39,130.46,288.00,,HYP,64,,7,,,,,,PANSTARRS,2458852.5,2020-01-04.0,-4.363e+04,5.12,1.99e+03,2019-11-29,2020-02-01
"     P/2019 GG21 (PANSTARRS)",11.02,2019-05-12.8,0.4740,3.932,6.08,340.58,208.79,20.4,JFc,104,5,60,,,,,,PANSTARRS,2458576.5,2019-04-03.0,7.476,2.94,1.14e+03,2019-01-11,2019-04-25
"     C/2019 H1 (NEOWISE)",470.82,2019-04-27.7,0.9922,1.845,104.58,269.19,19.28,3.63e+03,COM,283,,165,,,,,,NEOWISE,2458619.5,2019-05-16.0,236.3,0.865,337,2018-09-23,2019-07-03
"     C/2019 J1 (Lemmon)",140.61,2019-04-09.3,0.9654,2.479,24.55,98.09,167.79,605,COM,200,3,192,,,,,,Lemmon,2458652.5,2019-06-18.0,71.55,1.47,571,2019-05-04,2019-11-20
"     C/2019 J2 (Palomar)",1483.19,2019-07-19.7,0.9977,1.727,105.14,25.47,98.70,2.02e+04,COM,96,,312,,,,,,Palomar,2458644.5,2019-06-10.0,742.5,1.33,516,2019-04-27,2019-08-01
"     C/2019 J3 (ATLAS)",,2019-08-01.8,1.0007,2.374,131.41,270.52,16.55,,HYP,284,,270,,3.4e-07,,,,ATLAS,2458674.5,2019-07-10.0,-3501,1.38,537,2019-05-14,2020-02-22
"     C/2019 JU6 (ATLAS)",6786.50,2019-06-01.0,0.9994,2.046,148.29,21.70,94.92,1.98e+05,COM,40,,76,,,,,,ATLAS,2458622.5,2019-05-19.0,3394,1.29,503,2019-04-28,2019-06-07
"     C/2019 K1 (ATLAS)",,2020-02-12.8,1.0006,2.013,87.16,73.38,265.68,,HYP,468,,274,,,,,,ATLAS,2458646.5,2019-06-12.0,-3582,1.72,669,2019-05-14,2020-08-24
"     C/2019 K4 (Ye)",4811.66,2019-06-16.4,0.9991,2.259,105.31,180.17,139.77,1.18e+05,COM,222,,609,,,,,,Ye,2458720.5,2019-08-25.0,2407,1.42,553,2019-04-24,2019-12-02
"     C/2019 K5 (Young)",300.23,2019-06-22.7,0.9865,2.035,15.32,177.19,174.92,1.86e+03,COM,643,,734,,,,,,Young,2458739.5,2019-09-13.0,151.1,1.03,401,2018-06-17,2020-03-21
